{
  "type": "FeatureCollection",
  "features": [
    {
      "type": "Feature",
      "properties": {
        "norad_id": 58701,
        "name": "TIANMU-1 16",
        "group": "weather",
        "lat": -46.51738067222999,
        "lon": -176.07873109658692,
        "alt_km": 497.31429233574545,
        "timestamp": "2025-12-21T03:56:50.501688+00:00",
        "meta_object_name": "TIANMU-1 16",
        "meta_object_id": "2024-004B",
        "meta_epoch": "2025-12-20T20:16:37.121376",
        "meta_mean_motion": 15.24531788,
        "meta_eccentricity": 0.0004329,
        "meta_inclination": 97.456,
        "meta_ra_of_asc_node": 175.6659,
        "meta_arg_of_pericenter": 259.2142,
        "meta_mean_anomaly": 100.8609,
        "meta_ephemeris_type": 0,
        "meta_classification_type": "U",
        "meta_norad_cat_id": 58701,
        "meta_element_set_no": 999,
        "meta_rev_at_epoch": 10858,
        "meta_bstar": 0.00019565,
        "meta_mean_motion_dot": 4.743e-05,
        "meta_mean_motion_ddot": 0,
        "tle_line1": "1 58701U 24004B   25354.84487409  .00004743  00000+0  19565-3 0  9990",
        "tle_line2": "2 58701  97.4560 175.6659 0004329 259.2142 100.8609 15.24531788108586"
      },
      "geometry": {
        "type": "Point",
        "coordinates": [
          -176.07873109658692,
          -46.51738067222999
        ]
      }
    },
    {
      "type": "Feature",
      "properties": {
        "norad_id": 58702,
        "name": "TIANMU-1 17",
        "group": "weather",
        "lat": 38.38814284098271,
        "lon": 170.44003850453237,
        "alt_km": 491.0893002278208,
        "timestamp": "2025-12-21T03:56:50.501707+00:00",
        "meta_object_name": "TIANMU-1 17",
        "meta_object_id": "2024-004C",
        "meta_epoch": "2025-12-20T19:54:06.101856",
        "meta_mean_motion": 15.24575257,
        "meta_eccentricity": 0.0003518,
        "meta_inclination": 97.4595,
        "meta_ra_of_asc_node": 176.0646,
        "meta_arg_of_pericenter": 261.1338,
        "meta_mean_anomaly": 98.9501,
        "meta_ephemeris_type": 0,
        "meta_classification_type": "U",
        "meta_norad_cat_id": 58702,
        "meta_element_set_no": 999,
        "meta_rev_at_epoch": 10857,
        "meta_bstar": 0.00018575,
        "meta_mean_motion_dot": 4.504e-05,
        "meta_mean_motion_ddot": 0,
        "tle_line1": "1 58702U 24004C   25354.82923729  .00004504  00000+0  18575-3 0  9994",
        "tle_line2": "2 58702  97.4595 176.0646 0003518 261.1338  98.9501 15.24575257108570"
      },
      "geometry": {
        "type": "Point",
        "coordinates": [
          170.44003850453237,
          38.38814284098271
        ]
      }
    },
    {
      "type": "Feature",
      "properties": {
        "norad_id": 58703,
        "name": "TIANMU-1 18",
        "group": "weather",
        "lat": 49.446559132892425,
        "lon": 5.405314868571366,
        "alt_km": 488.85897486564863,
        "timestamp": "2025-12-21T03:56:50.501725+00:00",
        "meta_object_name": "TIANMU-1 18",
        "meta_object_id": "2024-004D",
        "meta_epoch": "2025-12-20T21:04:41.899008",
        "meta_mean_motion": 15.2456056,
        "meta_eccentricity": 0.0002861,
        "meta_inclination": 97.4612,
        "meta_ra_of_asc_node": 176.3104,
        "meta_arg_of_pericenter": 258.4587,
        "meta_mean_anomaly": 101.6329,
        "meta_ephemeris_type": 0,
        "meta_classification_type": "U",
        "meta_norad_cat_id": 58703,
        "meta_element_set_no": 999,
        "meta_rev_at_epoch": 10858,
        "meta_bstar": 0.00018432,
        "meta_mean_motion_dot": 4.467e-05,
        "meta_mean_motion_ddot": 0,
        "tle_line1": "1 58703U 24004D   25354.87826272  .00004467  00000+0  18432-3 0  9995",
        "tle_line2": "2 58703  97.4612 176.3104 0002861 258.4587 101.6329 15.24560560108580"
      },
      "geometry": {
        "type": "Point",
        "coordinates": [
          5.405314868571366,
          49.446559132892425
        ]
      }
    },
    {
      "type": "Feature",
      "properties": {
        "norad_id": 58990,
        "name": "INSAT-3DS",
        "group": "weather",
        "lat": 0.01588950425873978,
        "lon": -128.71245828271267,
        "alt_km": 35782.50826319232,
        "timestamp": "2025-12-21T03:56:50.501742+00:00",
        "meta_object_name": "INSAT-3DS",
        "meta_object_id": "2024-033A",
        "meta_epoch": "2025-12-20T19:46:51.361248",
        "meta_mean_motion": 1.00272187,
        "meta_eccentricity": 0.0001096,
        "meta_inclination": 0.0536,
        "meta_ra_of_asc_node": 103.7768,
        "meta_arg_of_pericenter": 169.1255,
        "meta_mean_anomaly": 195.57,
        "meta_ephemeris_type": 0,
        "meta_classification_type": "U",
        "meta_norad_cat_id": 58990,
        "meta_element_set_no": 999,
        "meta_rev_at_epoch": 4528,
        "meta_bstar": 0,
        "meta_mean_motion_dot": -1.33e-06,
        "meta_mean_motion_ddot": 0,
        "tle_line1": "1 58990U 24033A   25354.82420557 -.00000133  00000+0  00000+0 0  9991",
        "tle_line2": "2 58990   0.0536 103.7768 0001096 169.1255 195.5700  1.00272187 45288"
      },
      "geometry": {
        "type": "Point",
        "coordinates": [
          -128.71245828271267,
          0.01588950425873978
        ]
      }
    },
    {
      "type": "Feature",
      "properties": {
        "norad_id": 59051,
        "name": "METEOR-M2 4",
        "group": "weather",
        "lat": 80.8631241143676,
        "lon": -156.33296370030033,
        "alt_km": 812.1057145294762,
        "timestamp": "2025-12-21T03:56:50.501758+00:00",
        "meta_object_name": "METEOR-M2 4",
        "meta_object_id": "2024-039A",
        "meta_epoch": "2025-12-20T20:45:34.881120",
        "meta_mean_motion": 14.2240243,
        "meta_eccentricity": 0.0006605,
        "meta_inclination": 98.6778,
        "meta_ra_of_asc_node": 311.6469,
        "meta_arg_of_pericenter": 334.5689,
        "meta_mean_anomaly": 25.5163,
        "meta_ephemeris_type": 0,
        "meta_classification_type": "U",
        "meta_norad_cat_id": 59051,
        "meta_element_set_no": 999,
        "meta_rev_at_epoch": 9391,
        "meta_bstar": 2.1219e-05,
        "meta_mean_motion_dot": 4e-08,
        "meta_mean_motion_ddot": 0,
        "tle_line1": "1 59051U 24039A   25354.86498705  .00000004  00000+0  21219-4 0  9996",
        "tle_line2": "2 59051  98.6778 311.6469 0006605 334.5689  25.5163 14.22402430 93918"
      },
      "geometry": {
        "type": "Point",
        "coordinates": [
          -156.33296370030033,
          80.8631241143676
        ]
      }
    },
    {
      "type": "Feature",
      "properties": {
        "norad_id": 60133,
        "name": "GOES 19",
        "group": "weather",
        "lat": -0.010775779420592891,
        "lon": 74.00803553812268,
        "alt_km": 35787.9581656537,
        "timestamp": "2025-12-21T03:56:50.501775+00:00",
        "meta_object_name": "GOES 19",
        "meta_object_id": "2024-119A",
        "meta_epoch": "2025-12-20T18:00:17.089920",
        "meta_mean_motion": 1.00270714,
        "meta_eccentricity": 0.0001073,
        "meta_inclination": 0.0038,
        "meta_ra_of_asc_node": 234.3442,
        "meta_arg_of_pericenter": 90.0677,
        "meta_mean_anomaly": 320.0475,
        "meta_ephemeris_type": 0,
        "meta_classification_type": "U",
        "meta_norad_cat_id": 60133,
        "meta_element_set_no": 999,
        "meta_rev_at_epoch": 517,
        "meta_bstar": 0,
        "meta_mean_motion_dot": -2.25e-06,
        "meta_mean_motion_ddot": 0,
        "tle_line1": "1 60133U 24119A   25354.75019780 -.00000225  00000+0  00000+0 0  9994",
        "tle_line2": "2 60133   0.0038 234.3442 0001073  90.0677 320.0475  1.00270714  5174"
      },
      "geometry": {
        "type": "Point",
        "coordinates": [
          74.00803553812268,
          -0.010775779420592891
        ]
      }
    },
    {
      "type": "Feature",
      "properties": {
        "norad_id": 65815,
        "name": "FENGYUN 3H",
        "group": "weather",
        "lat": -73.66999468378799,
        "lon": 83.2305678271527,
        "alt_km": 833.4242125924538,
        "timestamp": "2025-12-21T03:56:50.501844+00:00",
        "meta_object_name": "FENGYUN 3H",
        "meta_object_id": "2025-219A",
        "meta_epoch": "2025-12-20T18:17:20.244768",
        "meta_mean_motion": 14.19906627,
        "meta_eccentricity": 7.37e-05,
        "meta_inclination": 98.6595,
        "meta_ra_of_asc_node": 294.1785,
        "meta_arg_of_pericenter": 105.4565,
        "meta_mean_anomaly": 254.6693,
        "meta_ephemeris_type": 0,
        "meta_classification_type": "U",
        "meta_norad_cat_id": 65815,
        "meta_element_set_no": 999,
        "meta_rev_at_epoch": 1206,
        "meta_bstar": 3.7814e-05,
        "meta_mean_motion_dot": 3.7e-07,
        "meta_mean_motion_ddot": 0,
        "tle_line1": "1 65815U 25219A   25354.76203987  .00000037  00000+0  37814-4 0  9991",
        "tle_line2": "2 65815  98.6595 294.1785 0000737 105.4565 254.6693 14.19906627 12067"
      },
      "geometry": {
        "type": "Point",
        "coordinates": [
          83.2305678271527,
          -73.66999468378799
        ]
      }
    }
  ]
}